ONEWEB-0512             
1 54130U 22138T   25318.44352984  .00000029  00000+0  40013-4 0  9999
2 54130  87.9209 347.7081 0002125 104.6459 255.4909 13.19726259148483
ONEWEB-0513             
1 54131U 22138U   25318.46173031  .00000008  00000+0 -11931-4 0  9991
2 54131  87.9232 347.6657 0001989 113.7707 246.3635 13.20319431148388
ONEWEB-0514             
1 54132U 22138V   25318.53515095  .00000025  00000+0  30611-4 0  9994
2 54132  87.9222 347.6726 0001709  93.7812 266.3516 13.19726651148518
ONEWEB-0515             
1 54133U 22138W   25318.42411581  .00000143  00000+0  31931-3 0  9994
2 54133  87.9187 317.2523 0002025  64.2293 295.9049 13.20773278150954
ONEWEB-0516             
1 54134U 22138X   25318.50987184  .00000186  00000+0  43300-3 0  9991
2 54134  87.9208 347.7000 0001955  95.3709 264.7646 13.19727234148510
ONEWEB-0517             
1 54135U 22138Y   25318.33771398  .00000097  00000+0  21087-3 0  9990
2 54135  87.9231 347.7096 0001612 102.3157 257.8156 13.19726096148499
ONEWEB-0518             
1 54136U 22138Z   25318.50829755  .00000131  00000+0  29471-3 0  9995
2 54136  87.9210 347.7025 0001983  98.4131 261.7226 13.19726926148514
ONEWEB-0519             
1 54137U 22138AA  25318.53357199  .00000072  00000+0  14774-3 0  9991
2 54137  87.9227 347.6620 0001694 101.5527 258.5796 13.19726479148527
